; generated by Slic3r 1.2.9 on 2025-03-05 at 17:38:17

; external perimeters extrusion width = 0.50mm
; perimeters extrusion width = 0.72mm
; infill extrusion width = 0.72mm
; solid infill extrusion width = 0.72mm
; top infill extrusion width = 0.72mm

M107
G28 ; home all axes
G1 Z5 F5000 ; lift nozzle

G21 ; set units to millimeters
G90 ; use absolute coordinates
M82 ; use absolute distances for extrusion
G92 E0
G1 Z0.500 F7800.000
G1 E-2.00000 F2400.00000
G92 E0
G1 X66.962 Y84.315 F7800.000
G1 E2.00000 F2400.00000
G1 X69.137 Y83.454 E2.43418 F1800.000
G1 X70.312 Y83.311 E2.65384
G1 X102.212 Y82.211 E8.57706
G1 X129.450 Y82.207 E13.63154
G1 X131.756 Y82.604 E14.06572
G1 X133.796 Y83.750 E14.49990 F1800.000
G1 X135.335 Y85.512 E14.93408
G1 X136.196 Y87.687 E15.36825
G1 X136.343 Y89.100 E15.63180
G1 X136.343 Y110.900 E19.67724
G1 X135.946 Y113.206 E20.11142
G1 X134.800 Y115.246 E20.54560
G1 X133.038 Y116.785 E20.97977
G1 X130.863 Y117.646 E21.41395
G1 X129.450 Y117.793 E21.67750
G1 X102.212 Y117.789 E26.73199
G1 X70.312 Y116.689 E32.65521
G1 X68.022 Y116.212 E33.08939
G1 X66.022 Y114.997 E33.52356
G1 X64.545 Y113.183 E33.95774
G1 X63.759 Y110.979 E34.39192
G1 X63.657 Y109.800 E34.61158
G1 X63.657 Y90.200 E38.24876
G1 X64.054 Y87.894 E38.68294
G1 X65.200 Y85.854 E39.11712
G1 X66.905 Y84.364 E39.53738
G1 E37.53738 F2400.00000
G92 E0
G1 X128.950 Y110.400 F7800.000
G1 E2.00000 F2400.00000
G1 X102.950 Y110.400 E6.82483 F1800.000
G1 X102.950 Y89.600 E10.68470
G1 X128.950 Y89.600 E15.50954
G1 X128.950 Y110.325 E19.35549
G1 X128.517 Y110.150 F7800.000
G1 X128.057 Y109.507 F7800.000
G1 X103.843 Y109.507 E23.84900 F1800.000
G1 X103.843 Y90.493 E27.37755
G1 X128.057 Y90.493 E31.87107
G1 X128.057 Y109.432 E35.38570
G1 X127.165 Y108.615 F7800.000
G1 X104.735 Y108.615 E39.54790 F1800.000
G1 X104.735 Y91.385 E42.74514
G1 X127.165 Y91.385 E46.90733
G1 X127.165 Y108.540 E50.09065
G1 X126.615 Y92.354 F7800.000
G1 X126.196 Y91.935 E50.20058 F1800.000
G1 X124.934 Y91.935 E50.43500
G1 X126.615 Y93.616 E50.87646
G1 X126.615 Y94.879 E51.11089
G1 X123.671 Y91.935 E51.88388
G1 X122.408 Y91.935 E52.11831
G1 X126.615 Y96.142 E53.22282
G1 X126.615 Y97.405 E53.45725
G1 X121.145 Y91.935 E54.89330
G1 X119.882 Y91.935 E55.12773
G1 X126.615 Y98.668 E56.89531
G1 X126.615 Y99.931 E57.12973
G1 X118.619 Y91.935 E59.22884
G1 X117.356 Y91.935 E59.46327
G1 X126.615 Y101.194 E61.89391
G1 X126.615 Y102.457 E62.12834
G1 X116.093 Y91.935 E64.89051
G1 X114.831 Y91.935 E65.12493
G1 X126.615 Y103.719 E68.21863
G1 X126.615 Y104.982 E68.45306
G1 X113.568 Y91.935 E71.87829
G1 X112.305 Y91.935 E72.11272
G1 X126.615 Y106.245 E75.86948
G1 X126.615 Y107.508 E76.10391
G1 X111.042 Y91.935 E80.19220
G1 X109.779 Y91.935 E80.42662
G1 X125.910 Y108.065 E84.66119
G1 X124.647 Y108.065 E84.89561
G1 X108.516 Y91.935 E89.13017
G1 X107.253 Y91.935 E89.36460
G1 X123.384 Y108.065 E93.59916
G1 X122.121 Y108.065 E93.83359
G1 X105.990 Y91.935 E98.06815
G1 X105.285 Y92.492 E98.23506
G1 X120.858 Y108.065 E102.32335
G1 X119.595 Y108.065 E102.55778
G1 X105.285 Y93.755 E106.31454
G1 X105.285 Y95.018 E106.54896
G1 X118.332 Y108.065 E109.97419
G1 X117.069 Y108.065 E110.20862
G1 X105.285 Y96.281 E113.30232
G1 X105.285 Y97.543 E113.53675
G1 X115.807 Y108.065 E116.29891
G1 X114.544 Y108.065 E116.53334
G1 X105.285 Y98.806 E118.96398
G1 X105.285 Y100.069 E119.19841
G1 X113.281 Y108.065 E121.29752
G1 X112.018 Y108.065 E121.53194
G1 X105.285 Y101.332 E123.29952
G1 X105.285 Y102.595 E123.53395
G1 X110.755 Y108.065 E124.97000
G1 X109.492 Y108.065 E125.20442
G1 X105.285 Y103.858 E126.30894
G1 X105.285 Y105.121 E126.54337
G1 X108.229 Y108.065 E127.31636
G1 X106.966 Y108.065 E127.55078
G1 X105.285 Y106.384 E127.99224
G1 X105.285 Y107.646 E128.22667
G1 X105.704 Y108.065 E128.33660
G1 Z0.500 F7800.000
G1 E126.33660 F2400.00000
G92 E0
G1 X101.450 Y111.314 F7800.000
G1 X98.864 Y111.314 F7800.000
G1 X97.877 Y111.741 F7800.000
G1 X96.350 Y110.214 F7800.000
G1 X94.850 Y109.300 F7800.000
G1 E2.00000 F2400.00000
G1 X71.050 Y109.300 E6.41658 F1800.000
G1 X71.050 Y90.700 E9.86819
G1 X94.850 Y90.700 E14.28477
G1 X94.850 Y109.225 E17.72247
G1 X94.417 Y109.050 F7800.000
G1 X93.957 Y108.407 F7800.000
G1 X71.943 Y108.407 E21.80773 F1800.000
G1 X71.943 Y91.593 E24.92802
G1 X93.957 Y91.593 E29.01329
G1 X93.957 Y108.332 E32.11966
G1 X93.065 Y107.515 F7800.000
G1 X72.835 Y107.515 E35.87361 F1800.000
G1 X72.835 Y92.485 E38.66258
G1 X93.065 Y92.485 E42.41653
G1 X93.065 Y107.440 E45.19159
G1 X92.515 Y93.454 F7800.000
G1 X92.096 Y93.035 E45.30378 F1800.000
G1 X90.808 Y93.035 E45.54799
G1 X92.515 Y94.742 E46.00554
G1 X92.515 Y96.031 E46.24974
G1 X89.519 Y93.035 E47.05264
G1 X88.230 Y93.035 E47.29685
G1 X92.515 Y97.320 E48.44510
G1 X92.515 Y98.609 E48.68931
G1 X86.941 Y93.035 E50.18292
G1 X85.652 Y93.035 E50.42712
G1 X92.515 Y99.898 E52.26608
G1 X92.515 Y101.187 E52.51029
G1 X84.363 Y93.035 E54.69461
G1 X83.074 Y93.035 E54.93881
G1 X92.515 Y102.476 E57.46848
G1 X92.515 Y103.765 E57.71268
G1 X81.785 Y93.035 E60.58771
G1 X80.496 Y93.035 E60.83191
G1 X92.515 Y105.054 E64.05229
G1 X92.515 Y106.343 E64.29649
G1 X79.207 Y93.035 E67.86223
G1 X77.918 Y93.035 E68.10643
G1 X91.849 Y106.965 E71.83891
G1 X90.560 Y106.965 E72.08311
G1 X76.629 Y93.035 E75.81559
G1 X75.340 Y93.035 E76.05979
G1 X89.271 Y106.965 E79.79227
G1 X87.982 Y106.965 E80.03648
G1 X74.051 Y93.035 E83.76896
G1 X73.385 Y93.657 E83.94174
G1 X86.693 Y106.965 E87.50747
G1 X85.404 Y106.965 E87.75167
G1 X73.385 Y94.946 E90.97205
G1 X73.385 Y96.235 E91.21625
G1 X84.115 Y106.965 E94.09128
G1 X82.826 Y106.965 E94.33548
G1 X73.385 Y97.524 E96.86515
G1 X73.385 Y98.813 E97.10936
G1 X81.537 Y106.965 E99.29368
G1 X80.248 Y106.965 E99.53788
G1 X73.385 Y100.102 E101.37684
G1 X73.385 Y101.391 E101.62104
G1 X78.959 Y106.965 E103.11466
G1 X77.670 Y106.965 E103.35886
G1 X73.385 Y102.680 E104.50711
G1 X73.385 Y103.969 E104.75132
G1 X76.381 Y106.965 E105.55422
G1 X75.092 Y106.965 E105.79842
G1 X73.385 Y105.258 E106.25597
G1 X73.385 Y106.546 E106.50017
G1 X73.804 Y106.965 E106.61237
G1 Z0.800 F7800.000
G1 E104.61237 F2400.00000
G92 E0
G1 X96.350 Y110.214 F7800.000
G1 X98.796 Y111.246 F7800.000
G1 X100.379 Y112.385 F7800.000
G1 X101.207 Y112.728 F7800.000
G1 X102.036 Y111.900 F7800.000
G1 X128.000 Y109.450 F7800.000
G1 E2.00000 F2400.00000
G1 X103.900 Y109.450 E3.96742 F3600.000
G1 X103.900 Y90.550 E5.51035
G1 X128.000 Y90.550 E7.47777
G1 X128.000 Y109.375 E9.01458
G1 X128.655 Y110.105 F7800.000
G1 X103.245 Y110.105 E11.08885 F3600.000
G1 X103.245 Y89.895 E12.73864
G1 X128.655 Y89.895 E14.81291
G1 X128.655 Y110.030 E16.45658
G1 X129.200 Y110.650 F7800.000
G1 X102.700 Y110.650 E17.89640 F1800.000
G1 X102.700 Y89.350 E19.05369
G1 X129.200 Y89.350 E20.49351
G1 X129.200 Y110.575 E21.64672
G1 X128.767 Y110.400 F7800.000
G1 X127.285 Y109.053 F7800.000
G1 X127.603 Y108.735 E21.68344 F1200.000
G1 X127.603 Y107.809 E21.75919
G1 X126.359 Y109.053 E21.90303
G1 X125.432 Y109.053 E21.97878
G1 X127.603 Y106.882 E22.22974
G1 X127.603 Y105.955 E22.30548
G1 X124.505 Y109.053 E22.66356
G1 X123.578 Y109.053 E22.73931
G1 X127.603 Y105.028 E23.20451
G1 X127.603 Y104.102 E23.28025
G1 X122.652 Y109.053 E23.85258
G1 X121.725 Y109.053 E23.92832
G1 X127.603 Y103.175 E24.60776
G1 X127.603 Y102.248 E24.68351
G1 X120.798 Y109.053 E25.47007
G1 X119.871 Y109.053 E25.54582
G1 X127.603 Y101.321 E26.43950
G1 X127.603 Y100.395 E26.51524
G1 X118.945 Y109.053 E27.51605
G1 X118.018 Y109.053 E27.59179
G1 X127.603 Y99.468 E28.69971
G1 X127.603 Y98.541 E28.77546
G1 X117.091 Y109.053 E29.99050
G1 X116.164 Y109.053 E30.06625
G1 X127.603 Y97.614 E31.38841
G1 X127.603 Y96.688 E31.46416
G1 X115.238 Y109.053 E32.89344
G1 X114.311 Y109.053 E32.96919
G1 X127.603 Y95.761 E34.50559
G1 X127.603 Y94.834 E34.58134
G1 X113.384 Y109.053 E36.22486
G1 X112.457 Y109.053 E36.30061
G1 X127.603 Y93.907 E38.05125
G1 X127.603 Y92.981 E38.12700
G1 X111.531 Y109.053 E39.98476
G1 X110.604 Y109.053 E40.06051
G1 X127.603 Y92.054 E42.02539
G1 X127.603 Y91.127 E42.10114
G1 X109.677 Y109.053 E44.17314
G1 X108.750 Y109.053 E44.24889
G1 X126.856 Y90.947 E46.34172
G1 X125.930 Y90.947 E46.41747
G1 X107.824 Y109.053 E48.51030
G1 X106.897 Y109.053 E48.58605
G1 X125.003 Y90.947 E50.67888
G1 X124.076 Y90.947 E50.75463
G1 X105.970 Y109.053 E52.84746
G1 X105.044 Y109.053 E52.92321
G1 X123.149 Y90.947 E55.01604
G1 X122.223 Y90.947 E55.09179
G1 X104.297 Y108.873 E57.16379
G1 X104.297 Y107.946 E57.23954
G1 X121.296 Y90.947 E59.20442
G1 X120.369 Y90.947 E59.28016
G1 X104.297 Y107.019 E61.13793
G1 X104.297 Y106.093 E61.21367
G1 X119.443 Y90.947 E62.96431
G1 X118.516 Y90.947 E63.04006
G1 X104.297 Y105.166 E64.68358
G1 X104.297 Y104.239 E64.75932
G1 X117.589 Y90.947 E66.29572
G1 X116.662 Y90.947 E66.37147
G1 X104.297 Y103.312 E67.80075
G1 X104.297 Y102.386 E67.87650
G1 X115.736 Y90.947 E69.19866
G1 X114.809 Y90.947 E69.27440
G1 X104.297 Y101.459 E70.48944
G1 X104.297 Y100.532 E70.56519
G1 X113.882 Y90.947 E71.67311
G1 X112.955 Y90.947 E71.74885
G1 X104.297 Y99.605 E72.74965
G1 X104.297 Y98.679 E72.82540
G1 X112.029 Y90.947 E73.71907
G1 X111.102 Y90.947 E73.79482
G1 X104.297 Y97.752 E74.58138
G1 X104.297 Y96.825 E74.65712
G1 X110.175 Y90.947 E75.33656
G1 X109.248 Y90.947 E75.41231
G1 X104.297 Y95.898 E75.98463
G1 X104.297 Y94.972 E76.06037
G1 X108.322 Y90.947 E76.52557
G1 X107.395 Y90.947 E76.60131
G1 X104.297 Y94.045 E76.95939
G1 X104.297 Y93.118 E77.03514
G1 X106.468 Y90.947 E77.28610
G1 X105.541 Y90.947 E77.36184
G1 X104.297 Y92.191 E77.50568
G1 X104.297 Y91.265 E77.58142
G1 X104.615 Y90.947 E77.61814
G1 Z0.800 F7800.000
G1 E75.61814 F2400.00000
G92 E0
G1 X101.450 Y88.686 F7800.000
G1 X98.864 Y88.686 F7800.000
G1 X97.877 Y88.259 F7800.000
G1 X96.350 Y89.786 F7800.000
G1 X93.900 Y108.350 F7800.000
G1 E2.00000 F2400.00000
G1 X72.000 Y108.350 E3.78783 F3600.000
G1 X72.000 Y91.650 E5.15117
G1 X93.900 Y91.650 E6.93899
G1 X93.900 Y108.275 E8.29621
G1 X94.555 Y109.005 F7800.000
G1 X71.345 Y109.005 E10.19089 F3600.000
G1 X71.345 Y90.995 E11.66109
G1 X94.555 Y90.995 E13.55577
G1 X94.555 Y108.930 E15.01984
G1 X95.100 Y109.550 F7800.000
G1 X70.800 Y109.550 E16.34013 F1800.000
G1 X70.800 Y90.450 E17.37789
G1 X95.100 Y90.450 E18.69818
G1 X95.100 Y109.475 E19.73186
G1 X94.667 Y109.300 F7800.000
G1 X93.185 Y107.953 F7800.000
G1 X93.503 Y107.635 E19.76882 F1200.000
G1 X93.503 Y106.703 E19.84555
G1 X92.253 Y107.953 E19.99101
G1 X91.320 Y107.953 E20.06774
G1 X93.503 Y105.770 E20.32172
G1 X93.503 Y104.837 E20.39845
G1 X90.387 Y107.953 E20.76094
G1 X89.454 Y107.953 E20.83767
G1 X93.503 Y103.904 E21.30866
G1 X93.503 Y102.972 E21.38539
G1 X88.522 Y107.953 E21.96490
G1 X87.589 Y107.953 E22.04163
G1 X93.503 Y102.039 E22.72965
G1 X93.503 Y101.106 E22.80638
G1 X86.656 Y107.953 E23.60291
G1 X85.723 Y107.953 E23.67964
G1 X93.503 Y100.173 E24.58468
G1 X93.503 Y99.241 E24.66141
G1 X84.791 Y107.953 E25.67496
G1 X83.858 Y107.953 E25.75168
G1 X93.503 Y98.308 E26.87374
G1 X93.503 Y97.375 E26.95047
G1 X82.925 Y107.953 E28.18104
G1 X81.993 Y107.953 E28.25777
G1 X93.503 Y96.443 E29.59685
G1 X93.503 Y95.510 E29.67358
G1 X81.060 Y107.953 E31.12117
G1 X80.127 Y107.953 E31.19790
G1 X93.503 Y94.577 E32.75400
G1 X93.503 Y93.644 E32.83073
G1 X79.194 Y107.953 E34.49534
G1 X78.262 Y107.953 E34.57207
G1 X93.503 Y92.712 E36.34519
G1 X93.235 Y92.047 E36.40414
G1 X77.329 Y107.953 E38.25458
G1 X76.396 Y107.953 E38.33131
G1 X92.302 Y92.047 E40.18174
G1 X91.369 Y92.047 E40.25847
G1 X75.463 Y107.953 E42.10890
G1 X74.531 Y107.953 E42.18563
G1 X90.437 Y92.047 E44.03606
G1 X89.504 Y92.047 E44.11279
G1 X73.598 Y107.953 E45.96322
G1 X72.665 Y107.953 E46.03995
G1 X88.571 Y92.047 E47.89039
G1 X87.638 Y92.047 E47.96711
G1 X72.397 Y107.288 E49.74023
G1 X72.397 Y106.356 E49.81696
G1 X86.706 Y92.047 E51.48157
G1 X85.773 Y92.047 E51.55830
G1 X72.397 Y105.423 E53.11440
G1 X72.397 Y104.490 E53.19113
G1 X84.840 Y92.047 E54.63871
G1 X83.907 Y92.047 E54.71544
G1 X72.397 Y103.557 E56.05452
G1 X72.397 Y102.625 E56.13125
G1 X82.975 Y92.047 E57.36182
G1 X82.042 Y92.047 E57.43854
G1 X72.397 Y101.692 E58.56060
G1 X72.397 Y100.759 E58.63733
G1 X81.109 Y92.047 E59.65088
G1 X80.177 Y92.047 E59.72760
G1 X72.397 Y99.827 E60.63264
G1 X72.397 Y98.894 E60.70937
G1 X79.244 Y92.047 E61.50590
G1 X78.311 Y92.047 E61.58263
G1 X72.397 Y97.961 E62.27064
G1 X72.397 Y97.028 E62.34737
G1 X77.378 Y92.047 E62.92688
G1 X76.446 Y92.047 E63.00360
G1 X72.397 Y96.096 E63.47460
G1 X72.397 Y95.163 E63.55133
G1 X75.513 Y92.047 E63.91381
G1 X74.580 Y92.047 E63.99054
G1 X72.397 Y94.230 E64.24452
G1 X72.397 Y93.297 E64.32125
G1 X73.647 Y92.047 E64.46671
G1 X72.715 Y92.047 E64.54344
G1 X72.397 Y92.365 E64.58039
G1 Z1.100 F7800.000
G1 E62.58039 F2400.00000
G92 E0
G1 X96.350 Y110.214 F7800.000
G1 X98.796 Y111.246 F7800.000
G1 X100.379 Y112.385 F7800.000
G1 X101.207 Y112.728 F7800.000
G1 X102.036 Y111.900 F7800.000
G1 X128.000 Y109.450 F7800.000
G1 E2.00000 F2400.00000
G1 X103.900 Y109.450 E3.96742 F3600.000
G1 X103.900 Y90.550 E5.51035
G1 X128.000 Y90.550 E7.47777
G1 X128.000 Y109.375 E9.01458
G1 X128.655 Y110.105 F7800.000
G1 X103.245 Y110.105 E11.08885 F3600.000
G1 X103.245 Y89.895 E12.73864
G1 X128.655 Y89.895 E14.81291
G1 X128.655 Y110.030 E16.45658
G1 X129.200 Y110.650 F7800.000
G1 X102.700 Y110.650 E17.89640 F1800.000
G1 X102.700 Y89.350 E19.05369
G1 X129.200 Y89.350 E20.49351
G1 X129.200 Y110.575 E21.64672
G1 X128.767 Y110.400 F7800.000
G1 X127.603 Y91.265 F7800.000
G1 X127.285 Y90.947 E21.68344 F1200.000
G1 X126.359 Y90.947 E21.75919
G1 X127.603 Y92.191 E21.90303
G1 X127.603 Y93.118 E21.97878
G1 X125.432 Y90.947 E22.22974
G1 X124.505 Y90.947 E22.30548
G1 X127.603 Y94.045 E22.66356
G1 X127.603 Y94.972 E22.73931
G1 X123.578 Y90.947 E23.20451
G1 X122.652 Y90.947 E23.28025
G1 X127.603 Y95.898 E23.85258
G1 X127.603 Y96.825 E23.92832
G1 X121.725 Y90.947 E24.60776
G1 X120.798 Y90.947 E24.68351
G1 X127.603 Y97.752 E25.47007
G1 X127.603 Y98.679 E25.54582
G1 X119.871 Y90.947 E26.43950
G1 X118.945 Y90.947 E26.51524
G1 X127.603 Y99.605 E27.51605
G1 X127.603 Y100.532 E27.59179
G1 X118.018 Y90.947 E28.69972
G1 X117.091 Y90.947 E28.77546
G1 X127.603 Y101.459 E29.99050
G1 X127.603 Y102.386 E30.06625
G1 X116.164 Y90.947 E31.38841
G1 X115.238 Y90.947 E31.46416
G1 X127.603 Y103.312 E32.89344
G1 X127.603 Y104.239 E32.96919
G1 X114.311 Y90.947 E34.50559
G1 X113.384 Y90.947 E34.58134
G1 X127.603 Y105.166 E36.22486
G1 X127.603 Y106.093 E36.30061
G1 X112.457 Y90.947 E38.05125
G1 X111.531 Y90.947 E38.12700
G1 X127.603 Y107.019 E39.98476
G1 X127.603 Y107.946 E40.06051
G1 X110.604 Y90.947 E42.02539
G1 X109.677 Y90.947 E42.10114
G1 X127.603 Y108.873 E44.17314
G1 X126.856 Y109.053 E44.23591
G1 X108.750 Y90.947 E46.32875
G1 X107.824 Y90.947 E46.40449
G1 X125.930 Y109.053 E48.49733
G1 X125.003 Y109.053 E48.57307
G1 X106.897 Y90.947 E50.66591
G1 X105.970 Y90.947 E50.74165
G1 X124.076 Y109.053 E52.83449
G1 X123.149 Y109.053 E52.91023
G1 X105.044 Y90.947 E55.00307
G1 X104.297 Y91.127 E55.06583
G1 X122.223 Y109.053 E57.13784
G1 X121.296 Y109.053 E57.21358
G1 X104.297 Y92.054 E59.17846
G1 X104.297 Y92.981 E59.25421
G1 X120.369 Y109.053 E61.11197
G1 X119.443 Y109.053 E61.18772
G1 X104.297 Y93.907 E62.93836
G1 X104.297 Y94.834 E63.01410
G1 X118.516 Y109.053 E64.65762
G1 X117.589 Y109.053 E64.73337
G1 X104.297 Y95.761 E66.26977
G1 X104.297 Y96.688 E66.34552
G1 X116.662 Y109.053 E67.77480
G1 X115.736 Y109.053 E67.85054
G1 X104.297 Y97.614 E69.17270
G1 X104.297 Y98.541 E69.24845
G1 X114.809 Y109.053 E70.46349
G1 X113.882 Y109.053 E70.53923
G1 X104.297 Y99.468 E71.64715
G1 X104.297 Y100.395 E71.72290
G1 X112.955 Y109.053 E72.72370
G1 X112.029 Y109.053 E72.79944
G1 X104.297 Y101.321 E73.69312
G1 X104.297 Y102.248 E73.76887
G1 X111.102 Y109.053 E74.55542
G1 X110.175 Y109.053 E74.63117
G1 X104.297 Y103.175 E75.31061
G1 X104.297 Y104.102 E75.38635
G1 X109.248 Y109.053 E75.95867
G1 X108.322 Y109.053 E76.03442
G1 X104.297 Y105.028 E76.49961
G1 X104.297 Y105.955 E76.57536
G1 X107.395 Y109.053 E76.93344
G1 X106.468 Y109.053 E77.00918
G1 X104.297 Y106.882 E77.26014
G1 X104.297 Y107.809 E77.33589
G1 X105.541 Y109.053 E77.47972
G1 X104.615 Y109.053 E77.55547
G1 X104.297 Y108.735 E77.59218
G1 Z1.100 F7800.000
G1 E75.59218 F2400.00000
G92 E0
G1 X101.450 Y111.314 F7800.000
G1 X98.864 Y111.314 F7800.000
G1 X97.877 Y111.741 F7800.000
G1 X96.350 Y110.214 F7800.000
G1 X93.900 Y108.350 F7800.000
G1 E2.00000 F2400.00000
G1 X72.000 Y108.350 E3.78783 F3600.000
G1 X72.000 Y91.650 E5.15117
G1 X93.900 Y91.650 E6.93899
G1 X93.900 Y108.275 E8.29621
G1 X94.555 Y109.005 F7800.000
G1 X71.345 Y109.005 E10.19089 F3600.000
G1 X71.345 Y90.995 E11.66109
G1 X94.555 Y90.995 E13.55577
G1 X94.555 Y108.930 E15.01984
G1 X95.100 Y109.550 F7800.000
G1 X70.800 Y109.550 E16.34013 F1800.000
G1 X70.800 Y90.450 E17.37789
G1 X95.100 Y90.450 E18.69818
G1 X95.100 Y109.475 E19.73186
G1 X94.667 Y109.300 F7800.000
G1 E17.73186 F2400.00000
G92 E0
G1 X93.503 Y92.365 F7800.000
G1 E2.00000 F2400.00000
G1 X93.185 Y92.047 E2.03696 F900.000
G1 X92.253 Y92.047 E2.11369
G1 X93.503 Y93.297 E2.25915
G1 X93.503 Y94.230 E2.33588
G1 X91.320 Y92.047 E2.58986
G1 X90.387 Y92.047 E2.66659
G1 X93.503 Y95.163 E3.02908
G1 X93.503 Y96.096 E3.10580
G1 X89.454 Y92.047 E3.57680
G1 X88.522 Y92.047 E3.65353
G1 X93.503 Y97.028 E4.23304
G1 X93.503 Y97.961 E4.30977
G1 X87.589 Y92.047 E4.99778
G1 X86.656 Y92.047 E5.07451
G1 X93.503 Y98.894 E5.87104
G1 X93.503 Y99.827 E5.94777
G1 X85.723 Y92.047 E6.85280
G1 X84.791 Y92.047 E6.92953
G1 X93.503 Y100.759 E7.94308
G1 X93.503 Y101.692 E8.01981
G1 X83.858 Y92.047 E9.14187
G1 X82.925 Y92.047 E9.21859
G1 X93.503 Y102.625 E10.44916
G1 X93.503 Y103.557 E10.52589
G1 X81.993 Y92.047 E11.86497
G1 X81.060 Y92.047 E11.94170
G1 X93.503 Y104.490 E13.38929
G1 X93.503 Y105.423 E13.46601
G1 X80.127 Y92.047 E15.02211
G1 X79.194 Y92.047 E15.09884
G1 X93.503 Y106.356 E16.76345
G1 X93.503 Y107.288 E16.84018
G1 X78.262 Y92.047 E18.61329
G1 X77.329 Y92.047 E18.69002
G1 X93.235 Y107.953 E20.54045
G1 X92.302 Y107.953 E20.61718
G1 X76.396 Y92.047 E22.46761
G1 X75.463 Y92.047 E22.54434
G1 X91.369 Y107.953 E24.39477
G1 X90.437 Y107.953 E24.47149
G1 X74.531 Y92.047 E26.32192
G1 X73.598 Y92.047 E26.39865
G1 X89.504 Y107.953 E28.24908
G1 X88.571 Y107.953 E28.32581
G1 X72.665 Y92.047 E30.17624
G1 X72.397 Y92.712 E30.23519
G1 X87.638 Y107.953 E32.00831
G1 X86.706 Y107.953 E32.08503
G1 X72.397 Y93.644 E33.74964
G1 X72.397 Y94.577 E33.82637
G1 X85.773 Y107.953 E35.38246
G1 X84.840 Y107.953 E35.45919
G1 X72.397 Y95.510 E36.90678
G1 X72.397 Y96.443 E36.98350
G1 X83.907 Y107.953 E38.32258
G1 X82.975 Y107.953 E38.39931
G1 X72.397 Y97.375 E39.62987
G1 X72.397 Y98.308 E39.70660
G1 X82.042 Y107.953 E40.82865
G1 X81.109 Y107.953 E40.90538
G1 X72.397 Y99.241 E41.91893
G1 X72.397 Y100.173 E41.99566
G1 X80.177 Y107.953 E42.90069
G1 X79.244 Y107.953 E42.97742
G1 X72.397 Y101.106 E43.77394
G1 X72.397 Y102.039 E43.85067
G1 X78.311 Y107.953 E44.53869
G1 X77.378 Y107.953 E44.61541
G1 X72.397 Y102.972 E45.19492
G1 X72.397 Y103.904 E45.27165
G1 X76.446 Y107.953 E45.74264
G1 X75.513 Y107.953 E45.81937
G1 X72.397 Y104.837 E46.18186
G1 X72.397 Y105.770 E46.25858
G1 X74.580 Y107.953 E46.51256
G1 X73.647 Y107.953 E46.58929
G1 X72.397 Y106.703 E46.73475
G1 X72.397 Y107.635 E46.81148
G1 X72.715 Y107.953 E46.84843
M106 S147.9
G1 Z1.400 F7800.000
G1 E44.84843 F2400.00000
G92 E0
G1 X96.350 Y110.214 F7800.000
G1 X98.796 Y111.246 F7800.000
G1 X100.379 Y112.385 F7800.000
G1 X101.207 Y112.728 F7800.000
G1 X102.036 Y111.900 F7800.000
G1 X128.000 Y109.450 F7800.000
G1 E2.00000 F2400.00000
G1 X103.900 Y109.450 E3.96742 F3600.000
G1 X103.900 Y90.550 E5.51035
G1 X128.000 Y90.550 E7.47777
G1 X128.000 Y109.375 E9.01458
G1 X128.655 Y110.105 F7800.000
G1 X103.245 Y110.105 E11.08885 F3600.000
G1 X103.245 Y89.895 E12.73864
G1 X128.655 Y89.895 E14.81291
G1 X128.655 Y110.030 E16.45658
G1 X129.200 Y110.650 F7800.000
G1 X102.700 Y110.650 E17.89640 F1800.000
G1 X102.700 Y89.350 E19.05369
G1 X129.200 Y89.350 E20.49351
G1 X129.200 Y110.575 E21.64672
G1 X128.767 Y110.400 F7800.000
G1 X127.285 Y109.053 F7800.000
G1 X127.603 Y108.735 E21.68344 F1200.000
G1 X127.603 Y107.809 E21.75919
G1 X126.359 Y109.053 E21.90303
G1 X125.432 Y109.053 E21.97878
G1 X127.603 Y106.882 E22.22974
G1 X127.603 Y105.955 E22.30548
G1 X124.505 Y109.053 E22.66356
G1 X123.578 Y109.053 E22.73931
G1 X127.603 Y105.028 E23.20451
G1 X127.603 Y104.102 E23.28025
G1 X122.652 Y109.053 E23.85258
G1 X121.725 Y109.053 E23.92832
G1 X127.603 Y103.175 E24.60776
G1 X127.603 Y102.248 E24.68351
G1 X120.798 Y109.053 E25.47007
G1 X119.871 Y109.053 E25.54582
G1 X127.603 Y101.321 E26.43950
G1 X127.603 Y100.395 E26.51524
G1 X118.945 Y109.053 E27.51605
G1 X118.018 Y109.053 E27.59179
G1 X127.603 Y99.468 E28.69971
G1 X127.603 Y98.541 E28.77546
G1 X117.091 Y109.053 E29.99050
G1 X116.164 Y109.053 E30.06625
G1 X127.603 Y97.614 E31.38841
G1 X127.603 Y96.688 E31.46416
G1 X115.238 Y109.053 E32.89344
G1 X114.311 Y109.053 E32.96919
G1 X127.603 Y95.761 E34.50559
G1 X127.603 Y94.834 E34.58134
G1 X113.384 Y109.053 E36.22486
G1 X112.457 Y109.053 E36.30061
G1 X127.603 Y93.907 E38.05125
G1 X127.603 Y92.981 E38.12700
G1 X111.531 Y109.053 E39.98476
G1 X110.604 Y109.053 E40.06051
G1 X127.603 Y92.054 E42.02539
G1 X127.603 Y91.127 E42.10114
G1 X109.677 Y109.053 E44.17314
G1 X108.750 Y109.053 E44.24889
G1 X126.856 Y90.947 E46.34172
G1 X125.930 Y90.947 E46.41747
G1 X107.824 Y109.053 E48.51030
G1 X106.897 Y109.053 E48.58605
G1 X125.003 Y90.947 E50.67888
G1 X124.076 Y90.947 E50.75463
G1 X105.970 Y109.053 E52.84746
G1 X105.044 Y109.053 E52.92321
G1 X123.149 Y90.947 E55.01604
G1 X122.223 Y90.947 E55.09179
G1 X104.297 Y108.873 E57.16379
G1 X104.297 Y107.946 E57.23954
G1 X121.296 Y90.947 E59.20442
G1 X120.369 Y90.947 E59.28016
G1 X104.297 Y107.019 E61.13793
G1 X104.297 Y106.093 E61.21367
G1 X119.443 Y90.947 E62.96431
G1 X118.516 Y90.947 E63.04006
G1 X104.297 Y105.166 E64.68358
G1 X104.297 Y104.239 E64.75932
G1 X117.589 Y90.947 E66.29572
G1 X116.662 Y90.947 E66.37147
G1 X104.297 Y103.312 E67.80075
G1 X104.297 Y102.386 E67.87650
G1 X115.736 Y90.947 E69.19866
G1 X114.809 Y90.947 E69.27440
G1 X104.297 Y101.459 E70.48944
G1 X104.297 Y100.532 E70.56519
G1 X113.882 Y90.947 E71.67311
G1 X112.955 Y90.947 E71.74885
G1 X104.297 Y99.605 E72.74965
G1 X104.297 Y98.679 E72.82540
G1 X112.029 Y90.947 E73.71907
G1 X111.102 Y90.947 E73.79482
G1 X104.297 Y97.752 E74.58138
G1 X104.297 Y96.825 E74.65712
G1 X110.175 Y90.947 E75.33656
G1 X109.248 Y90.947 E75.41231
G1 X104.297 Y95.898 E75.98463
G1 X104.297 Y94.972 E76.06037
G1 X108.322 Y90.947 E76.52557
G1 X107.395 Y90.947 E76.60131
G1 X104.297 Y94.045 E76.95939
G1 X104.297 Y93.118 E77.03514
G1 X106.468 Y90.947 E77.28610
G1 X105.541 Y90.947 E77.36184
G1 X104.297 Y92.191 E77.50568
G1 X104.297 Y91.265 E77.58142
G1 X104.615 Y90.947 E77.61814
G1 Z1.700 F7800.000
G1 X128.000 Y109.450 F7800.000
G1 X103.900 Y109.450 E79.58556 F3600.000
G1 X103.900 Y90.550 E81.12849
G1 X128.000 Y90.550 E83.09591
G1 X128.000 Y109.375 E84.63272
G1 X128.655 Y110.105 F7800.000
G1 X103.245 Y110.105 E86.70699 F3600.000
G1 X103.245 Y89.895 E88.35678
G1 X128.655 Y89.895 E90.43105
G1 X128.655 Y110.030 E92.07472
G1 X129.200 Y110.650 F7800.000
G1 X102.700 Y110.650 E93.51454 F1800.000
G1 X102.700 Y89.350 E94.67183
G1 X129.200 Y89.350 E96.11165
G1 X129.200 Y110.575 E97.26486
G1 X128.767 Y110.400 F7800.000
G1 X127.603 Y91.265 F7800.000
G1 X127.285 Y90.947 E97.30158 F1200.000
G1 X126.359 Y90.947 E97.37733
G1 X127.603 Y92.191 E97.52117
G1 X127.603 Y93.118 E97.59691
G1 X125.432 Y90.947 E97.84788
G1 X124.505 Y90.947 E97.92362
G1 X127.603 Y94.045 E98.28170
G1 X127.603 Y94.972 E98.35745
G1 X123.578 Y90.947 E98.82265
G1 X122.652 Y90.947 E98.89839
G1 X127.603 Y95.898 E99.47072
G1 X127.603 Y96.825 E99.54646
G1 X121.725 Y90.947 E100.22590
G1 X120.798 Y90.947 E100.30165
G1 X127.603 Y97.752 E101.08821
G1 X127.603 Y98.679 E101.16396
G1 X119.871 Y90.947 E102.05764
G1 X118.945 Y90.947 E102.13338
G1 X127.603 Y99.605 E103.13419
G1 X127.603 Y100.532 E103.20993
G1 X118.018 Y90.947 E104.31786
G1 X117.091 Y90.947 E104.39360
G1 X127.603 Y101.459 E105.60864
G1 X127.603 Y102.386 E105.68439
G1 X116.164 Y90.947 E107.00655
G1 X115.238 Y90.947 E107.08230
G1 X127.603 Y103.312 E108.51158
G1 X127.603 Y104.239 E108.58733
G1 X114.311 Y90.947 E110.12373
G1 X113.384 Y90.947 E110.19948
G1 X127.603 Y105.166 E111.84300
G1 X127.603 Y106.093 E111.91875
G1 X112.457 Y90.947 E113.66939
G1 X111.531 Y90.947 E113.74514
G1 X127.603 Y107.019 E115.60290
G1 X127.603 Y107.946 E115.67865
G1 X110.604 Y90.947 E117.64353
G1 X109.677 Y90.947 E117.71928
G1 X127.603 Y108.873 E119.79128
G1 X126.856 Y109.053 E119.85405
G1 X108.750 Y90.947 E121.94689
G1 X107.824 Y90.947 E122.02263
G1 X125.930 Y109.053 E124.11547
G1 X125.003 Y109.053 E124.19121
G1 X106.897 Y90.947 E126.28405
G1 X105.970 Y90.947 E126.35979
G1 X124.076 Y109.053 E128.45263
G1 X123.149 Y109.053 E128.52837
G1 X105.044 Y90.947 E130.62121
G1 X104.297 Y91.127 E130.68397
G1 X122.223 Y109.053 E132.75598
G1 X121.296 Y109.053 E132.83172
G1 X104.297 Y92.054 E134.79660
G1 X104.297 Y92.981 E134.87235
G1 X120.369 Y109.053 E136.73011
G1 X119.443 Y109.053 E136.80586
G1 X104.297 Y93.907 E138.55650
G1 X104.297 Y94.834 E138.63224
G1 X118.516 Y109.053 E140.27576
G1 X117.589 Y109.053 E140.35151
G1 X104.297 Y95.761 E141.88791
G1 X104.297 Y96.688 E141.96366
G1 X116.662 Y109.053 E143.39294
G1 X115.736 Y109.053 E143.46868
G1 X104.297 Y97.614 E144.79084
G1 X104.297 Y98.541 E144.86659
G1 X114.809 Y109.053 E146.08163
G1 X113.882 Y109.053 E146.15737
G1 X104.297 Y99.468 E147.26529
G1 X104.297 Y100.395 E147.34104
G1 X112.955 Y109.053 E148.34184
G1 X112.029 Y109.053 E148.41758
G1 X104.297 Y101.321 E149.31126
G1 X104.297 Y102.248 E149.38701
G1 X111.102 Y109.053 E150.17356
G1 X110.175 Y109.053 E150.24931
G1 X104.297 Y103.175 E150.92875
G1 X104.297 Y104.102 E151.00449
G1 X109.248 Y109.053 E151.57681
G1 X108.322 Y109.053 E151.65256
G1 X104.297 Y105.028 E152.11775
G1 X104.297 Y105.955 E152.19350
G1 X107.395 Y109.053 E152.55158
G1 X106.468 Y109.053 E152.62732
G1 X104.297 Y106.882 E152.87828
G1 X104.297 Y107.809 E152.95403
G1 X105.541 Y109.053 E153.09786
G1 X104.615 Y109.053 E153.17361
G1 X104.297 Y108.735 E153.21032
M106 S112.2
G1 Z2.000 F7800.000
G1 E151.21032 F2400.00000
G92 E0
G1 X128.000 Y109.450 F7800.000
G1 E2.00000 F2400.00000
G1 X103.900 Y109.450 E3.96742 F3600.000
G1 X103.900 Y90.550 E5.51035
G1 X128.000 Y90.550 E7.47777
G1 X128.000 Y109.375 E9.01458
G1 X128.655 Y110.105 F7800.000
G1 X103.245 Y110.105 E11.08885 F3600.000
G1 X103.245 Y89.895 E12.73864
G1 X128.655 Y89.895 E14.81291
G1 X128.655 Y110.030 E16.45658
G1 X129.200 Y110.650 F7800.000
G1 X102.700 Y110.650 E17.89640 F1800.000
G1 X102.700 Y89.350 E19.05369
G1 X129.200 Y89.350 E20.49351
G1 X129.200 Y110.575 E21.64672
G1 X128.767 Y110.400 F7800.000
G1 E19.64672 F2400.00000
G92 E0
G1 X127.285 Y109.053 F7800.000
G1 E2.00000 F2400.00000
G1 X127.603 Y108.735 E2.03672 F900.000
G1 X127.603 Y107.809 E2.11247
G1 X126.359 Y109.053 E2.25631
G1 X125.432 Y109.053 E2.33205
G1 X127.603 Y106.882 E2.58301
G1 X127.603 Y105.955 E2.65876
G1 X124.505 Y109.053 E3.01684
G1 X123.578 Y109.053 E3.09258
G1 X127.603 Y105.028 E3.55779
G1 X127.603 Y104.102 E3.63353
G1 X122.652 Y109.053 E4.20585
G1 X121.725 Y109.053 E4.28160
G1 X127.603 Y103.175 E4.96104
G1 X127.603 Y102.248 E5.03679
G1 X120.798 Y109.053 E5.82335
G1 X119.871 Y109.053 E5.89909
G1 X127.603 Y101.321 E6.79278
G1 X127.603 Y100.395 E6.86852
G1 X118.945 Y109.053 E7.86932
G1 X118.018 Y109.053 E7.94507
G1 X127.603 Y99.468 E9.05299
G1 X127.603 Y98.541 E9.12874
G1 X117.091 Y109.053 E10.34378
G1 X116.164 Y109.053 E10.41953
G1 X127.603 Y97.614 E11.74169
G1 X127.603 Y96.688 E11.81743
G1 X115.238 Y109.053 E13.24672
G1 X114.311 Y109.053 E13.32246
G1 X127.603 Y95.761 E14.85887
G1 X127.603 Y94.834 E14.93461
G1 X113.384 Y109.053 E16.57814
G1 X112.457 Y109.053 E16.65388
G1 X127.603 Y93.907 E18.40453
G1 X127.603 Y92.981 E18.48027
G1 X111.531 Y109.053 E20.33804
G1 X110.604 Y109.053 E20.41378
G1 X127.603 Y92.054 E22.37867
G1 X127.603 Y91.127 E22.45441
G1 X109.677 Y109.053 E24.52642
G1 X108.750 Y109.053 E24.60216
G1 X126.856 Y90.947 E26.69500
G1 X125.930 Y90.947 E26.77074
G1 X107.824 Y109.053 E28.86358
G1 X106.897 Y109.053 E28.93932
G1 X125.003 Y90.947 E31.03216
G1 X124.076 Y90.947 E31.10791
G1 X105.970 Y109.053 E33.20074
G1 X105.044 Y109.053 E33.27649
G1 X123.149 Y90.947 E35.36932
G1 X122.223 Y90.947 E35.44507
G1 X104.297 Y108.873 E37.51707
G1 X104.297 Y107.946 E37.59281
G1 X121.296 Y90.947 E39.55770
G1 X120.369 Y90.947 E39.63344
G1 X104.297 Y107.019 E41.49120
G1 X104.297 Y106.093 E41.56695
G1 X119.443 Y90.947 E43.31759
G1 X118.516 Y90.947 E43.39333
G1 X104.297 Y105.166 E45.03686
G1 X104.297 Y104.239 E45.11260
G1 X117.589 Y90.947 E46.64900
G1 X116.662 Y90.947 E46.72475
G1 X104.297 Y103.312 E48.15403
G1 X104.297 Y102.386 E48.22977
G1 X115.736 Y90.947 E49.55193
G1 X114.809 Y90.947 E49.62768
G1 X104.297 Y101.459 E50.84272
G1 X104.297 Y100.532 E50.91846
G1 X113.882 Y90.947 E52.02638
G1 X112.955 Y90.947 E52.10213
G1 X104.297 Y99.605 E53.10293
G1 X104.297 Y98.679 E53.17867
G1 X112.029 Y90.947 E54.07235
G1 X111.102 Y90.947 E54.14810
G1 X104.297 Y97.752 E54.93466
G1 X104.297 Y96.825 E55.01040
G1 X110.175 Y90.947 E55.68984
G1 X109.248 Y90.947 E55.76558
G1 X104.297 Y95.898 E56.33790
G1 X104.297 Y94.972 E56.41365
G1 X108.322 Y90.947 E56.87885
G1 X107.395 Y90.947 E56.95459
G1 X104.297 Y94.045 E57.31267
G1 X104.297 Y93.118 E57.38841
G1 X106.468 Y90.947 E57.63937
G1 X105.541 Y90.947 E57.71512
G1 X104.297 Y92.191 E57.85895
G1 X104.297 Y91.265 E57.93470
G1 X104.615 Y90.947 E57.97142
M106 S249.9
G1 Z2.300 F7800.000
G1 E55.97142 F2400.00000
G92 E0
G1 X128.705 Y90.045 F7800.000
G1 E2.00000 F2400.00000
G1 X103.205 Y90.045 E3.38549 F1800.000
G1 X103.205 Y110.650 E4.50504
G1 X102.700 Y110.650 E4.53245
G1 X102.700 Y89.350 E5.68974
G1 X129.200 Y89.350 E7.12956
G1 X129.200 Y110.650 E8.28685
G1 X128.705 Y110.650 E8.31377
G1 X128.705 Y90.120 E9.42924
G1 X128.705 Y89.545 F7800.000
G1 X128.455 Y110.497 F7800.000
G1 X103.455 Y110.497 E11.47006 F1800.000
G1 X102.973 Y89.697 F7800.000
G1 X128.927 Y89.697 E13.58883 F1200.000
G1 Z2.600 F7800.000
G1 X128.705 Y90.045 F7800.000
G1 X103.205 Y90.045 E14.97431 F1800.000
G1 X103.205 Y110.650 E16.09386
G1 X102.700 Y110.650 E16.12128
G1 X102.700 Y89.350 E17.27857
G1 X129.200 Y89.350 E18.71839
G1 X129.200 Y110.650 E19.87568
G1 X128.705 Y110.650 E19.90260
G1 X128.705 Y90.120 E21.01807
G1 X128.705 Y89.545 F7800.000
G1 X128.455 Y110.497 F7800.000
G1 X103.455 Y110.497 E23.05889 F1800.000
G1 X102.973 Y89.697 F7800.000
G1 X128.927 Y89.697 E25.17765 F1200.000
G1 Z2.900 F7800.000
G1 X128.705 Y90.045 F7800.000
G1 X103.205 Y90.045 E26.56314 F1800.000
G1 X103.205 Y110.650 E27.68269
G1 X102.700 Y110.650 E27.71010
G1 X102.700 Y89.350 E28.86739
G1 X129.200 Y89.350 E30.30721
G1 X129.200 Y110.650 E31.46450
G1 X128.705 Y110.650 E31.49142
G1 X128.705 Y90.120 E32.60690
G1 X128.705 Y89.545 F7800.000
G1 E30.60690 F2400.00000
G92 E0
G1 X128.455 Y110.497 F7800.000
G1 E2.00000 F2400.00000
G1 X103.455 Y110.497 E4.04081 F1800.000
G1 E2.04081 F2400.00000
G92 E0
G1 X102.973 Y89.697 F7800.000
G1 E2.00000 F2400.00000
G1 X128.927 Y89.697 E4.11877 F1200.000
G1 Z3.200 F7800.000
G1 E2.11877 F2400.00000
G92 E0
G1 X103.205 Y106.343 F7800.000
G1 E2.00000 F2400.00000
G1 X103.205 Y110.650 E2.23401 F900.000
G1 X102.700 Y110.650 E2.26143
G1 X102.700 Y106.343 E2.49544
G1 X103.130 Y106.343 E2.51878
G1 X102.955 Y106.776 F7800.000
G1 X103.455 Y110.497 F7800.000
G1 X128.455 Y110.497 E4.55959 F1800.000
G1 E2.55959 F2400.00000
G92 E0
G1 X128.705 Y105.255 F7800.000
G1 E2.00000 F2400.00000
G1 X129.200 Y105.255 E2.02692 F900.000
G1 X129.200 Y110.650 E2.32007
G1 X128.705 Y110.650 E2.34699
G1 X128.705 Y105.330 E2.63607
G1 X129.134 Y105.502 F7800.000
G1 E0.63607 F2400.00000
G92 E0
G1 X128.455 Y105.005 F7800.000
G1 X128.455 Y102.009 F7800.000
G1 X128.455 Y97.855 F7800.000
G1 X128.455 Y94.859 F7800.000
G1 X128.705 Y90.045 F7800.000
G1 E2.00000 F2400.00000
G1 X103.205 Y90.045 E3.38549 F1800.000
G1 X103.205 Y94.917 E3.65023
G1 X102.700 Y94.917 E3.67764
G1 X102.700 Y89.350 E3.98012
G1 X129.200 Y89.350 E5.41994
G1 X129.200 Y94.609 E5.70569
G1 X128.705 Y94.609 E5.73261
G1 X128.705 Y90.120 E5.97654
G1 X128.705 Y89.545 F7800.000
G1 X128.927 Y89.697 F7800.000
G1 X102.973 Y89.697 E8.09531 F1200.000
G1 Z3.500 F7800.000
G1 E6.09531 F2400.00000
G92 E0
G1 X103.205 Y106.343 F7800.000
G1 E2.00000 F2400.00000
G1 X103.205 Y110.650 E2.23401 F900.000
G1 X102.700 Y110.650 E2.26143
G1 X102.700 Y106.343 E2.49544
G1 X103.130 Y106.343 E2.51878
G1 X102.955 Y106.776 F7800.000
G1 X103.455 Y110.497 F7800.000
G1 X128.455 Y110.497 E4.55959 F1800.000
G1 E2.55959 F2400.00000
G92 E0
G1 X128.705 Y105.825 F7800.000
G1 E2.00000 F2400.00000
G1 X129.200 Y105.825 E2.02692 F900.000
G1 X129.200 Y110.650 E2.28906
G1 X128.705 Y110.650 E2.31598
G1 X128.705 Y105.900 E2.57404
G1 X129.134 Y106.073 F7800.000
G1 E0.57404 F2400.00000
G92 E0
G1 X128.455 Y105.575 F7800.000
G1 X128.455 Y102.580 F7800.000
G1 X128.455 Y97.284 F7800.000
G1 X128.455 Y94.288 F7800.000
G1 X128.705 Y90.045 F7800.000
G1 E2.00000 F2400.00000
G1 X103.205 Y90.045 E3.38549 F1800.000
G1 X103.205 Y94.917 E3.65023
G1 X102.700 Y94.917 E3.67764
G1 X102.700 Y89.350 E3.98012
G1 X129.200 Y89.350 E5.41994
G1 X129.200 Y94.038 E5.67468
G1 X128.705 Y94.038 E5.70160
G1 X128.705 Y90.120 E5.91452
G1 X128.705 Y89.545 F7800.000
G1 X128.927 Y89.697 F7800.000
G1 X102.973 Y89.697 E8.03329 F1200.000
M106 S252.45
G1 Z3.800 F7800.000
G1 E6.03329 F2400.00000
G92 E0
G1 X103.205 Y106.343 F7800.000
G1 E2.00000 F2400.00000
G1 X103.205 Y110.650 E2.23401 F900.000
G1 X102.700 Y110.650 E2.26143
G1 X102.700 Y106.343 E2.49544
G1 X103.130 Y106.343 E2.51878
G1 X102.955 Y106.776 F7800.000
G1 X103.455 Y110.497 F7800.000
G1 X128.455 Y110.497 E4.55959 F1800.000
G1 X128.705 Y106.110 F7800.000
G1 X129.200 Y106.110 E4.58651 F900.000
G1 X129.200 Y110.650 E4.83318
G1 X128.705 Y110.650 E4.86010
G1 X128.705 Y106.185 E5.10269
G1 X129.134 Y106.358 F7800.000
G1 E3.10269 F2400.00000
G92 E0
G1 X128.455 Y105.860 F7800.000
G1 X128.455 Y102.865 F7800.000
G1 X128.455 Y96.999 F7800.000
G1 X128.455 Y94.004 F7800.000
G1 X128.705 Y90.045 F7800.000
G1 E2.00000 F2400.00000
G1 X103.205 Y90.045 E3.38549 F1800.000
G1 X103.205 Y94.917 E3.65023
G1 X102.700 Y94.917 E3.67764
G1 X102.700 Y89.350 E3.98012
G1 X129.200 Y89.350 E5.41994
G1 X129.200 Y93.754 E5.65921
G1 X128.705 Y93.754 E5.68613
G1 X128.705 Y90.120 E5.88358
G1 X128.705 Y89.545 F7800.000
G1 X128.927 Y89.697 F7800.000
G1 X102.973 Y89.697 E8.00234 F1200.000
G1 Z4.100 F7800.000
G1 E6.00234 F2400.00000
G92 E0
G1 X103.205 Y106.343 F7800.000
G1 E2.00000 F2400.00000
G1 X103.205 Y110.650 E2.23401 F900.000
G1 X102.700 Y110.650 E2.26143
G1 X102.700 Y106.343 E2.49544
G1 X103.130 Y106.343 E2.51878
G1 X102.955 Y106.776 F7800.000
G1 X103.455 Y110.497 F7800.000
G1 X128.455 Y110.497 E4.55959 F1800.000
G1 X128.705 Y106.276 F7800.000
G1 X129.200 Y106.276 E4.58651 F900.000
G1 X129.200 Y110.650 E4.82419
G1 X128.705 Y110.650 E4.85111
G1 X128.705 Y106.351 E5.08470
G1 X129.134 Y106.523 F7800.000
G1 E3.08470 F2400.00000
G92 E0
G1 X128.455 Y106.026 F7800.000
G1 X128.455 Y103.030 F7800.000
G1 X128.455 Y96.834 F7800.000
G1 X128.455 Y93.838 F7800.000
G1 X128.705 Y90.045 F7800.000
G1 E2.00000 F2400.00000
G1 X103.205 Y90.045 E3.38549 F1800.000
G1 X103.205 Y94.917 E3.65023
G1 X102.700 Y94.917 E3.67764
G1 X102.700 Y89.350 E3.98012
G1 X129.200 Y89.350 E5.41994
G1 X129.200 Y93.588 E5.65021
G1 X128.705 Y93.588 E5.67713
G1 X128.705 Y90.120 E5.86559
G1 X128.705 Y89.545 F7800.000
G1 X128.927 Y89.697 F7800.000
G1 X102.973 Y89.697 E7.98435 F1200.000
G1 Z4.400 F7800.000
G1 E5.98435 F2400.00000
G92 E0
G1 X103.205 Y106.343 F7800.000
G1 E2.00000 F2400.00000
G1 X103.205 Y110.650 E2.23401 F900.000
G1 X102.700 Y110.650 E2.26143
G1 X102.700 Y106.343 E2.49544
G1 X103.130 Y106.343 E2.51878
G1 X102.955 Y106.776 F7800.000
G1 X103.455 Y110.497 F7800.000
G1 X128.455 Y110.497 E4.55959 F1800.000
G1 X128.705 Y106.367 F7800.000
G1 X129.200 Y106.367 E4.58651 F900.000
G1 X129.200 Y110.650 E4.81920
G1 X128.705 Y110.650 E4.84612
G1 X128.705 Y106.442 E5.07473
G1 X129.134 Y106.615 F7800.000
G1 E3.07473 F2400.00000
G92 E0
G1 X128.455 Y106.117 F7800.000
G1 X128.455 Y103.122 F7800.000
G1 X128.455 Y96.742 F7800.000
G1 X128.455 Y93.746 F7800.000
G1 X128.705 Y90.045 F7800.000
G1 E2.00000 F2400.00000
G1 X103.205 Y90.045 E3.38549 F1800.000
G1 X103.205 Y94.917 E3.65023
G1 X102.700 Y94.917 E3.67764
G1 X102.700 Y89.350 E3.98012
G1 X129.200 Y89.350 E5.41994
G1 X129.200 Y93.496 E5.64523
G1 X128.705 Y93.496 E5.67215
G1 X128.705 Y90.120 E5.85561
G1 X128.705 Y89.545 F7800.000
G1 X128.927 Y89.697 F7800.000
G1 X102.973 Y89.697 E7.97438 F1200.000
G1 Z4.700 F7800.000
G1 E5.97438 F2400.00000
G92 E0
G1 X103.205 Y106.343 F7800.000
G1 E2.00000 F2400.00000
G1 X103.205 Y110.650 E2.23401 F900.000
G1 X102.700 Y110.650 E2.26143
G1 X102.700 Y106.343 E2.49544
G1 X103.130 Y106.343 E2.51878
G1 X102.955 Y106.776 F7800.000
G1 X103.455 Y110.497 F7800.000
G1 X128.455 Y110.497 E4.55959 F1800.000
G1 X128.705 Y106.402 F7800.000
G1 X129.200 Y106.402 E4.58651 F900.000
G1 X129.200 Y110.650 E4.81735
G1 X128.705 Y110.650 E4.84427
G1 X128.705 Y106.477 E5.07103
G1 X129.134 Y106.649 F7800.000
G1 E3.07103 F2400.00000
G92 E0
G1 X128.455 Y106.151 F7800.000
G1 X128.455 Y103.156 F7800.000
G1 X128.455 Y96.708 F7800.000
G1 X128.455 Y93.712 F7800.000
G1 X128.705 Y90.045 F7800.000
G1 E2.00000 F2400.00000
G1 X103.205 Y90.045 E3.38549 F1800.000
G1 X103.205 Y94.917 E3.65023
G1 X102.700 Y94.917 E3.67764
G1 X102.700 Y89.350 E3.98012
G1 X129.200 Y89.350 E5.41994
G1 X129.200 Y93.462 E5.64337
G1 X128.705 Y93.462 E5.67029
G1 X128.705 Y90.120 E5.85191
G1 X128.705 Y89.545 F7800.000
G1 X128.927 Y89.697 F7800.000
G1 X102.973 Y89.697 E7.97067 F1200.000
G1 Z5.000 F7800.000
G1 E5.97067 F2400.00000
G92 E0
G1 X103.205 Y106.609 F7800.000
G1 E2.00000 F2400.00000
G1 X103.205 Y110.650 E2.21954 F900.000
G1 X102.700 Y110.650 E2.24695
G1 X102.700 Y106.343 E2.48097
G1 X103.205 Y106.343 E2.50838
G1 X103.205 Y106.534 E2.51878
G1 X102.772 Y106.859 F7800.000
G1 X103.455 Y110.497 F7800.000
G1 X128.455 Y110.497 E4.55959 F1800.000
G1 X128.705 Y106.383 F7800.000
G1 X129.200 Y106.383 E4.58651 F900.000
G1 X129.200 Y110.650 E4.81836
G1 X128.705 Y110.650 E4.84528
G1 X128.705 Y106.458 E5.07306
G1 X129.134 Y106.631 F7800.000
G1 E3.07306 F2400.00000
G92 E0
G1 X128.455 Y106.133 F7800.000
G1 X128.455 Y103.137 F7800.000
G1 X128.455 Y96.726 F7800.000
G1 X128.455 Y93.731 F7800.000
G1 X128.705 Y90.045 F7800.000
G1 E2.00000 F2400.00000
G1 X103.205 Y90.045 E3.38549 F1800.000
G1 X103.205 Y94.917 E3.65023
G1 X102.700 Y94.917 E3.67764
G1 X102.700 Y89.350 E3.98012
G1 X129.200 Y89.350 E5.41994
G1 X129.200 Y93.481 E5.64439
G1 X128.705 Y93.481 E5.67131
G1 X128.705 Y90.120 E5.85394
G1 X128.705 Y89.545 F7800.000
G1 X128.927 Y89.697 F7800.000
G1 X102.973 Y89.697 E7.97270 F1200.000
G1 Z5.300 F7800.000
G1 E5.97270 F2400.00000
G92 E0
G1 X103.205 Y106.343 F7800.000
G1 E2.00000 F2400.00000
G1 X103.205 Y110.650 E2.23401 F900.000
G1 X102.700 Y110.650 E2.26143
G1 X102.700 Y106.343 E2.49544
G1 X103.130 Y106.343 E2.51878
G1 X102.955 Y106.776 F7800.000
G1 X103.455 Y110.497 F7800.000
G1 X128.455 Y110.497 E4.55959 F1800.000
G1 X128.705 Y106.309 F7800.000
G1 X129.200 Y106.309 E4.58651 F900.000
G1 X129.200 Y110.650 E4.82240
G1 X128.705 Y110.650 E4.84932
G1 X128.705 Y106.384 E5.08113
G1 X129.134 Y106.556 F7800.000
G1 E3.08113 F2400.00000
G92 E0
G1 X128.455 Y106.059 F7800.000
G1 X128.455 Y103.063 F7800.000
G1 X128.455 Y96.801 F7800.000
G1 X128.455 Y93.805 F7800.000
G1 X128.705 Y90.045 F7800.000
G1 E2.00000 F2400.00000
G1 X103.205 Y90.045 E3.38549 F1800.000
G1 X103.205 Y94.917 E3.65023
G1 X102.700 Y94.917 E3.67764
G1 X102.700 Y89.350 E3.98012
G1 X129.200 Y89.350 E5.41994
G1 X129.200 Y93.555 E5.64842
G1 X128.705 Y93.555 E5.67534
G1 X128.705 Y90.120 E5.86201
G1 X128.705 Y89.545 F7800.000
G1 X128.927 Y89.697 F7800.000
G1 X102.973 Y89.697 E7.98078 F1200.000
M106 S249.9
G1 Z5.600 F7800.000
G1 X128.705 Y90.045 F7800.000
G1 X103.205 Y90.045 E9.36627 F1800.000
G1 X103.205 Y95.417 E9.65817
M106 S255
G1 X103.205 Y105.843 E10.50925 F3600.000
M106 S249.9
G1 X103.205 Y110.650 E10.77044 F1800.000
G1 X102.700 Y110.650 E10.79785
G1 X102.700 Y105.843 E11.05903
M106 S255
G1 X102.700 Y95.417 E11.91011 F3600.000
M106 S249.9
G1 X102.700 Y89.350 E12.23976 F1800.000
G1 X129.200 Y89.350 E13.67958
G1 X129.200 Y93.713 E13.91662
G1 X128.705 Y93.713 E13.94354
G1 X128.705 Y90.120 E14.13876
G1 X128.705 Y89.545 F7800.000
G1 E12.13876 F2400.00000
G92 E0
G1 X103.455 Y110.497 F7800.000
G1 E2.00000 F2400.00000
G1 X128.455 Y110.497 E4.04081 F1800.000
G1 X128.705 Y106.151 F7800.000
G1 X129.200 Y106.151 E4.06774 F900.000
G1 X129.200 Y110.650 E4.31217
G1 X128.705 Y110.650 E4.33910
G1 X128.705 Y106.226 E4.57946
G1 X129.134 Y106.399 F7800.000
G1 E2.57946 F2400.00000
G92 E0
G1 X128.927 Y89.697 F7800.000
G1 E2.00000 F2400.00000
G1 X102.973 Y89.697 E4.11877 F1200.000
G1 Z5.900 F7800.000
G1 X128.705 Y90.045 F7800.000
G1 X103.205 Y90.045 E5.50426 F1800.000
G1 X103.205 Y110.650 E6.62380
G1 X102.700 Y110.650 E6.65122
G1 X102.700 Y89.350 E7.80851
G1 X129.200 Y89.350 E9.24833
G1 X129.200 Y93.964 E9.49901
G1 X128.705 Y93.964 E9.52593
G1 X128.705 Y90.120 E9.73481
G1 X128.705 Y89.545 F7800.000
G1 E7.73481 F2400.00000
G92 E0
G1 X128.455 Y110.497 F7800.000
G1 E2.00000 F2400.00000
G1 X103.455 Y110.497 E4.04081 F1800.000
G1 E2.04081 F2400.00000
G92 E0
G1 X128.705 Y105.900 F7800.000
G1 E2.00000 F2400.00000
G1 X129.200 Y105.900 E2.02692 F900.000
G1 X129.200 Y110.650 E2.28501
G1 X128.705 Y110.650 E2.31193
G1 X128.705 Y105.975 E2.56595
G1 X129.134 Y106.148 F7800.000
G1 E0.56595 F2400.00000
G92 E0
G1 X128.927 Y89.697 F7800.000
G1 E2.00000 F2400.00000
G1 X102.973 Y89.697 E4.11877 F1200.000
G1 Z6.200 F7800.000
G1 X128.705 Y90.045 F7800.000
G1 X103.205 Y90.045 E5.50426 F1800.000
G1 X103.205 Y110.650 E6.62380
G1 X102.700 Y110.650 E6.65122
G1 X102.700 Y89.350 E7.80851
G1 X129.200 Y89.350 E9.24833
G1 X129.200 Y94.444 E9.52509
G1 X128.705 Y94.444 E9.55202
G1 X128.705 Y90.120 E9.78697
G1 X128.705 Y89.545 F7800.000
G1 E7.78697 F2400.00000
G92 E0
G1 X128.455 Y110.497 F7800.000
G1 E2.00000 F2400.00000
G1 X103.455 Y110.497 E4.04081 F1800.000
G1 E2.04081 F2400.00000
G92 E0
G1 X128.705 Y105.420 F7800.000
G1 E2.00000 F2400.00000
G1 X129.200 Y105.420 E2.02692 F900.000
G1 X129.200 Y110.650 E2.31109
G1 X128.705 Y110.650 E2.33801
G1 X128.705 Y105.495 E2.61811
G1 X129.134 Y105.668 F7800.000
G1 E0.61811 F2400.00000
G92 E0
G1 X128.927 Y89.697 F7800.000
G1 E2.00000 F2400.00000
G1 X102.973 Y89.697 E4.11877 F1200.000
G1 Z6.500 F7800.000
G1 X128.705 Y90.045 F7800.000
G1 X103.205 Y90.045 E5.50426 F1800.000
G1 X103.205 Y110.650 E6.62380
G1 X102.700 Y110.650 E6.65122
G1 X102.700 Y89.350 E7.80851
G1 X129.200 Y89.350 E9.24833
G1 X129.200 Y94.944 E9.55226
M106 S255
G1 X129.200 Y104.920 E10.36662 F3600.000
M106 S249.9
G1 X129.200 Y110.650 E10.67796 F1800.000
G1 X128.705 Y110.650 E10.70488
G1 X128.705 Y104.920 E11.01621
M106 S255
G1 X128.705 Y94.944 E11.83057 F3600.000
M106 S249.9
G1 X128.705 Y90.120 E12.09269 F1800.000
G1 X128.705 Y89.545 F7800.000
G1 E10.09269 F2400.00000
G92 E0
G1 X128.455 Y110.497 F7800.000
G1 E2.00000 F2400.00000
G1 X103.455 Y110.497 E4.04081 F1800.000
G1 X102.973 Y89.697 F7800.000
G1 X128.927 Y89.697 E6.15958 F1200.000
G1 Z6.800 F7800.000
G1 X128.705 Y90.045 F7800.000
G1 X103.205 Y90.045 E7.54507 F1800.000
G1 X103.205 Y110.650 E8.66462
G1 X102.700 Y110.650 E8.69203
G1 X102.700 Y89.350 E9.84932
G1 X129.200 Y89.350 E11.28914
G1 X129.200 Y110.650 E12.44643
G1 X128.705 Y110.650 E12.47335
G1 X128.705 Y90.120 E13.58883
G1 X128.705 Y89.545 F7800.000
G1 X128.455 Y110.497 F7800.000
G1 X103.455 Y110.497 E15.62964 F1800.000
G1 X102.973 Y89.697 F7800.000
G1 X128.927 Y89.697 E17.74841 F1200.000
G1 Z7.100 F7800.000
G1 X128.705 Y90.045 F7800.000
G1 X103.205 Y90.045 E19.13390 F1800.000
G1 X103.205 Y110.650 E20.25345
G1 X102.700 Y110.650 E20.28086
G1 X102.700 Y89.350 E21.43815
G1 X129.200 Y89.350 E22.87797
G1 X129.200 Y110.650 E24.03526
G1 X128.705 Y110.650 E24.06218
G1 X128.705 Y90.120 E25.17765
G1 X128.705 Y89.545 F7800.000
G1 X128.455 Y110.497 F7800.000
G1 X103.455 Y110.497 E27.21847 F1800.000
G1 X102.973 Y89.697 F7800.000
G1 X128.927 Y89.697 E29.33724 F1200.000
G1 Z7.400 F7800.000
G1 X128.705 Y90.045 F7800.000
G1 X103.205 Y90.045 E30.72272 F1800.000
G1 X103.205 Y110.650 E31.84227
G1 X102.700 Y110.650 E31.86969
G1 X102.700 Y89.350 E33.02698
G1 X129.200 Y89.350 E34.46680
G1 X129.200 Y110.650 E35.62409
G1 X128.705 Y110.650 E35.65101
G1 X128.705 Y90.120 E36.76648
G1 X128.705 Y89.545 F7800.000
G1 X128.455 Y110.497 F7800.000
G1 X103.455 Y110.497 E38.80730 F1800.000
G1 X102.973 Y89.697 F7800.000
G1 X128.927 Y89.697 E40.92606 F1200.000
G1 Z7.700 F7800.000
G1 X128.705 Y90.045 F7800.000
G1 X103.205 Y90.045 E42.31155 F1800.000
G1 X103.205 Y110.650 E43.43110
G1 X102.700 Y110.650 E43.45851
G1 X102.700 Y89.350 E44.61580
G1 X129.200 Y89.350 E46.05562
G1 X129.200 Y110.650 E47.21291
G1 X128.705 Y110.650 E47.23983
G1 X128.705 Y90.120 E48.35531
G1 X128.705 Y89.545 F7800.000
G1 E46.35531 F2400.00000
G92 E0
G1 X128.455 Y110.497 F7800.000
G1 E2.00000 F2400.00000
G1 X103.455 Y110.497 E4.04081 F1800.000
G1 E2.04081 F2400.00000
G92 E0
G1 X102.973 Y89.697 F7800.000
G1 E2.00000 F2400.00000
G1 X128.927 Y89.697 E4.11877 F1200.000
G1 E2.11877 F2400.00000
G92 E0
M107
M104 S0 ; turn off temperature
G28 X0  ; home X axis
M84     ; disable motors

; filament used = 969.4mm (2.3cm3)

; avoid_crossing_perimeters = 1
; bed_shape = 0x0,200x0,200x200,0x200
; bed_temperature = 0
; before_layer_gcode = 
; bridge_acceleration = 0
; bridge_fan_speed = 100
; brim_width = 0
; complete_objects = 0
; cooling = 1
; default_acceleration = 0
; disable_fan_first_layers = 3
; duplicate_distance = 6
; end_gcode = M104 S0 ; turn off temperature\nG28 X0  ; home X axis\nM84     ; disable motors\n
; extruder_clearance_height = 20
; extruder_clearance_radius = 20
; extruder_offset = 0x0
; extrusion_axis = E
; extrusion_multiplier = 1
; fan_always_on = 0
; fan_below_layer_time = 60
; filament_colour = #FFFFFF
; filament_diameter = 1.75
; first_layer_acceleration = 0
; first_layer_bed_temperature = 0
; first_layer_extrusion_width = 200%
; first_layer_speed = 30
; first_layer_temperature = 0
; gcode_arcs = 0
; gcode_comments = 0
; gcode_flavor = reprap
; infill_acceleration = 0
; infill_first = 0
; layer_gcode = 
; max_fan_speed = 100
; max_print_speed = 80
; max_volumetric_speed = 0
; min_fan_speed = 35
; min_print_speed = 10
; min_skirt_length = 0
; notes = 
; nozzle_diameter = 0.5
; only_retract_when_crossing_perimeters = 1
; ooze_prevention = 0
; output_filename_format = [input_filename_base].gcode
; perimeter_acceleration = 0
; post_process = 
; pressure_advance = 0
; resolution = 0
; retract_before_travel = 2
; retract_layer_change = 0
; retract_length = 2
; retract_length_toolchange = 10
; retract_lift = 0
; retract_restart_extra = 0
; retract_restart_extra_toolchange = 0
; retract_speed = 40
; skirt_distance = 6
; skirt_height = 1
; skirts = 1
; slowdown_below_layer_time = 5
; spiral_vase = 0
; standby_temperature_delta = -5
; start_gcode = G28 ; home all axes\nG1 Z5 F5000 ; lift nozzle\n
; temperature = 0
; threads = 2
; toolchange_gcode = 
; travel_speed = 130
; use_firmware_retraction = 0
; use_relative_e_distances = 0
; use_volumetric_e = 0
; vibration_limit = 0
; wipe = 0
; z_offset = 0
; dont_support_bridges = 1
; extrusion_width = 0
; first_layer_height = 0.5
; infill_only_where_needed = 0
; interface_shells = 0
; layer_height = 0.3
; raft_layers = 0
; seam_position = aligned
; support_material = 0
; support_material_angle = 0
; support_material_contact_distance = 0.2
; support_material_enforce_layers = 0
; support_material_extruder = 1
; support_material_extrusion_width = 0
; support_material_interface_extruder = 1
; support_material_interface_layers = 3
; support_material_interface_spacing = 0
; support_material_interface_speed = 100%
; support_material_pattern = pillars
; support_material_spacing = 2.5
; support_material_speed = 60
; support_material_threshold = 0
; xy_size_compensation = 0
; bottom_solid_layers = 3
; bridge_flow_ratio = 1
; bridge_speed = 60
; external_fill_pattern = rectilinear
; external_perimeter_extrusion_width = 0
; external_perimeter_speed = 50%
; external_perimeters_first = 0
; extra_perimeters = 1
; fill_angle = 45
; fill_density = 20%
; fill_pattern = honeycomb
; gap_fill_speed = 20
; infill_every_layers = 10
; infill_extruder = 1
; infill_extrusion_width = 0
; infill_overlap = 15%
; infill_speed = 80
; overhangs = 1
; perimeter_extruder = 1
; perimeter_extrusion_width = 0
; perimeter_speed = 60
; perimeters = 3
; small_perimeter_speed = 15
; solid_infill_below_area = 70
; solid_infill_every_layers = 0
; solid_infill_extruder = 1
; solid_infill_extrusion_width = 0
; solid_infill_speed = 20
; thin_walls = 1
; top_infill_extrusion_width = 0
; top_solid_infill_speed = 15
; top_solid_layers = 3
